NORAD_CAT_ID,OBJECT_NAME,OBJECT_TYPE,EPOCH,MEAN_MOTION,ECCENTRICITY,INCLINATION,RA_OF_ASC_NODE,ARG_OF_PERICENTER,MEAN_ANOMALY,BSTAR,MEAN_MOTION_DOT,MEAN_MOTION_DDOT,TLE_LINE0,TLE_LINE1,TLE_LINE2,SEMIMAJOR_AXIS,PERIOD,APOGEE,PERIGEE,DECAYED
53715.0,STARLINK-4686,PAYLOAD,2023-12-24 22:03:53,15.08845965,0.0001831,53.2163,271.0822,82.6163,277.5037,0.00013579,1.874e-05,0.0,0 STARLINK-4686,1 53715U 22107R   23358.91936365  .00001874  00000-0  13579-3 0  9994,2 53715  53.2163 271.0822 0001831  82.6163 277.5037 15.08845965 72779,6917.862,95.437,540.994,538.46,0.0
53715.0,STARLINK-4686,PAYLOAD,2023-12-25 04:25:25,15.08852667,0.0001715,53.2172,269.89,90.0381,270.0808,0.00030081,4.504e-05,0.0,0 STARLINK-4686,1 53715U 22107R   23359.18432037  .00004504  00000-0  30081-3 0  9991,2 53715  53.2172 269.8900 0001715  90.0381 270.0808 15.08852667 72352,6917.842,95.437,540.893,538.52,0.0
53715.0,STARLINK-4686,PAYLOAD,2023-12-25 18:43:53,15.08839989,0.0001532,53.2173,267.2074,97.4396,262.677,2.1327e-05,5.1e-07,0.0,0 STARLINK-4686,1 53715U 22107R   23359.78048398  .00000051  00000-0  21327-4 0  9997,2 53715  53.2173 267.2074 0001532  97.4396 262.6770 15.08839989 72448,6917.88,95.438,540.805,538.686,0.0
53715.0,STARLINK-4686,PAYLOAD,2023-12-25 21:54:40,15.08840411,0.0001651,53.2168,266.6133,95.1531,264.965,4.206e-06,-2.21e-06,0.0,0 STARLINK-4686,1 53715U 22107R   23359.91296435 -.00000221  00000-0  42060-5 0  9997,2 53715  53.2168 266.6133 0001651  95.1531 264.9650 15.08840411 72926,6917.879,95.438,540.886,538.602,0.0
53715.0,STARLINK-4686,PAYLOAD,2023-12-25 23:30:03,15.08839952,0.0001668,53.2167,266.3159,93.5567,266.5616,6.1116e-06,-1.91e-06,0.0,0 STARLINK-4686,1 53715U 22107R   23359.97920467 -.00000191  00000-0  61116-5 0  9991,2 53715  53.2167 266.3159 0001668  93.5567 266.5616 15.08839952 72938,6917.881,95.438,540.899,538.592,0.0
53715.0,STARLINK-4686,PAYLOAD,2023-12-26 21:45:27,15.08840299,0.0001625,53.2164,262.1534,97.848,262.2696,3.2726e-05,2.33e-06,0.0,0 STARLINK-4686,1 53715U 22107R   23360.90656676  .00000233  00000-0  32726-4 0  9994,2 53715  53.2164 262.1534 0001625  97.8480 262.2696 15.08840299 73073,6917.879,95.438,540.869,538.62,0.0
53715.0,STARLINK-4686,PAYLOAD,2023-12-27 02:31:36,15.08846265,0.0001646,53.2166,261.2673,92.6491,267.469,0.00019784,2.863e-05,0.0,0 STARLINK-4686,1 53715U 22107R   23361.10528571  .00002863  00000-0  19784-3 0  9998,2 53715  53.2166 261.2673 0001646  92.6491 267.4690 15.08846265 72649,6917.861,95.437,540.865,538.588,0.0
53715.0,STARLINK-4686,PAYLOAD,2023-12-27 21:36:14,15.08841736,0.0001754,53.2149,257.6993,84.4009,275.7183,0.00014565,2.031e-05,0.0,0 STARLINK-4686,1 53715U 22107R   23361.90016861  .00002031  00000-0  14565-3 0  9999,2 53715  53.2149 257.6993 0001754  84.4009 275.7183 15.08841736 73220,6917.875,95.437,540.953,538.527,0.0
53715.0,STARLINK-4686,PAYLOAD,2023-12-28 03:57:46,15.08863446,0.0001378,53.2165,256.5129,75.5559,284.5586,0.00040231,6.125e-05,0.0,0 STARLINK-4686,1 53715U 22107R   23362.16511853  .00006125  00000-0  40231-3 0  9996,2 53715  53.2165 256.5129 0001378  75.5559 284.5586 15.08863446 72800,6917.809,95.436,540.627,538.72,0.0
53715.0,STARLINK-4686,PAYLOAD,2023-12-29 00:37:47,15.08838203,0.0001397,53.2166,252.6471,132.5891,227.5219,1.7509e-05,-9e-08,0.0,0 STARLINK-4686,1 53715U 22107R   23363.02624920 -.00000009  00000-0  17509-4 0  9991,2 53715  53.2166 252.6471 0001397 132.5891 227.5219 15.08838203 72939,6917.886,95.438,540.717,538.784,0.0
53715.0,STARLINK-4686,PAYLOAD,2023-12-29 21:17:48,15.08849819,0.0001648,53.2171,248.7812,54.499,305.6156,-0.00017944,-3.144e-05,0.0,0 STARLINK-4686,1 53715U 22107R   23363.88736761 -.00003144  00000-0 -17944-3 0  9998,2 53715  53.2171 248.7812 0001648  54.4990 305.6156 15.08849819 73520,6917.85,95.437,540.855,538.575,0.0
53715.0,STARLINK-4686,PAYLOAD,2023-12-29 22:53:11,15.08849586,0.000177,53.2166,248.4844,55.4139,304.702,-0.00013756,-2.477e-05,0.0,0 STARLINK-4686,1 53715U 22107R   23363.95360797 -.00002477  00000-0 -13756-3 0  9993,2 53715  53.2166 248.4844 0001770  55.4139 304.7020 15.08849586 73530,6917.851,95.437,540.941,538.492,0.0
53715.0,STARLINK-4686,PAYLOAD,2023-12-30 19:33:12,15.08844586,0.000154,53.2152,244.6178,92.6421,267.4748,0.00016401,2.324e-05,0.0,0 STARLINK-4686,1 53715U 22107R   23364.81473010  .00002324  00000-0  16401-3 0  9991,2 53715  53.2152 244.6178 0001540  92.6421 267.4748 15.08844586 73206,6917.866,95.437,540.797,538.666,0.0
53715.0,STARLINK-4686,PAYLOAD,2023-12-30 22:43:58,15.0884459,0.0001468,53.215,244.0225,99.7109,260.4049,0.00015032,2.105e-05,0.0,0 STARLINK-4686,1 53715U 22107R   23364.94720896  .00002105  00000-0  15032-3 0  9998,2 53715  53.2150 244.0225 0001468  99.7109 260.4049 15.08844590 73685,6917.866,95.437,540.747,538.716,0.0
53715.0,STARLINK-4686,PAYLOAD,2023-12-31 19:24:00,15.08836209,0.0001497,53.215,240.1553,103.8115,256.3044,1.3319e-05,-7.6e-07,0.0,0 STARLINK-4686,1 53715U 22107R   23365.80833350 -.00000076  00000-0  13319-4 0  9997,2 53715  53.2150 240.1553 0001497 103.8115 256.3044 15.08836209 73353,6917.892,95.438,540.793,538.721,0.0
53715.0,STARLINK-4686,PAYLOAD,2023-12-31 22:34:46,15.08835929,0.0001457,53.2161,239.5606,99.8993,260.2164,2.9138e-05,1.76e-06,0.0,0 STARLINK-4686,1 53715U 22107R   23365.94081511  .00000176  00000-0  29138-4 0  9992,2 53715  53.2161 239.5606 0001457  99.8993 260.2164 15.08835929 73838,6917.893,95.438,540.766,538.75,0.0
53715.0,STARLINK-4686,PAYLOAD,2024-01-01 19:14:46,15.08845806,0.0001418,53.216,235.6945,103.6946,256.4204,7.2782e-05,8.71e-06,0.0,0 STARLINK-4686,1 53715U 22107R   24001.80192680  .00000871  00000-0  72782-4 0  9990,2 53715  53.2160 235.6945 0001418 103.6946 256.4204 15.08845806 73500,6917.863,95.437,540.709,538.747,0.0
53715.0,STARLINK-4686,PAYLOAD,2024-01-01 22:25:32,15.08850271,0.0001434,53.216,235.0999,100.04,260.0754,0.00011327,1.516e-05,0.0,0 STARLINK-4686,1 53715U 22107R   24001.93440285  .00001516  00000-0  11327-3 0  9995,2 53715  53.2160 235.0999 0001434 100.0400 260.0754 15.08850271 73982,6917.849,95.437,540.706,538.722,0.0
53715.0,STARLINK-4686,PAYLOAD,2024-01-02 01:36:18,15.08850816,0.0001382,53.2162,234.5064,92.3873,267.7278,0.00011511,1.545e-05,0.0,0 STARLINK-4686,1 53715U 22107R   24002.06688253  .00001545  00000-0  11511-3 0  9996,2 53715  53.2162 234.5064 0001382  92.3873 267.7278 15.08850816 74004,6917.847,95.437,540.668,538.756,0.0
53715.0,STARLINK-4686,PAYLOAD,2024-01-02 19:05:33,15.08839559,0.0001414,53.2154,231.2314,102.2065,257.9085,8.7476e-05,1.104e-05,0.0,0 STARLINK-4686,1 53715U 22107R   24002.79553059  .00001104  00000-0  87476-4 0  9996,2 53715  53.2154 231.2314 0001414 102.2065 257.9085 15.08839559 73655,6917.882,95.438,540.725,538.769,0.0
53715.0,STARLINK-4686,PAYLOAD,2024-01-02 20:40:57,15.08838245,0.0001422,53.2159,230.9341,102.2432,257.8719,7.6594e-05,9.31e-06,0.0,0 STARLINK-4686,1 53715U 22107R   24002.86177134  .00000931  00000-0  76594-4 0  9996,2 53715  53.2159 230.9341 0001422 102.2432 257.8719 15.08838245 74120,6917.886,95.438,540.734,538.767,0.0
53715.0,STARLINK-4686,PAYLOAD,2024-01-03 01:27:06,15.08835817,0.0001407,53.2156,230.0442,107.1132,253.0014,2.7345e-05,1.47e-06,0.0,0 STARLINK-4686,1 53715U 22107R   24003.06049383  .00000147  00000-0  27345-4 0  9992,2 53715  53.2156 230.0442 0001407 107.1132 253.0014 15.08835817 74155,6917.893,95.438,540.732,538.785,0.0
53715.0,STARLINK-4686,PAYLOAD,2024-01-03 22:07:07,15.08842154,0.0001226,53.2152,226.179,93.004,267.1092,-6.9016e-05,-1.386e-05,0.0,0 STARLINK-4686,1 53715U 22107R   24003.92161444 -.00001386  00000-0 -69016-4 0  9999,2 53715  53.2152 226.1790 0001226  93.0040 267.1092 15.08842154 74281,6917.874,95.437,540.587,538.891,0.0
53715.0,STARLINK-4686,PAYLOAD,2024-01-03 23:42:30,15.08840476,0.0001284,53.2153,225.8803,100.2585,259.8552,-3.8261e-05,-8.97e-06,0.0,0 STARLINK-4686,1 53715U 22107R   24003.98785432 -.00000897  00000-0 -38261-4 0  9998,2 53715  53.2153 225.8803 0001284 100.2585 259.8552 15.08840476 73836,6917.879,95.438,540.632,538.856,0.0
53715.0,STARLINK-4686,PAYLOAD,2024-01-04 21:57:54,15.08841275,0.0001287,53.2154,221.7176,86.9844,273.1295,0.00012,1.622e-05,0.0,0 STARLINK-4686,1 53715U 22107R   24004.91521052  .00001622  00000-0  12000-3 0  9995,2 53715  53.2154 221.7176 0001287  86.9844 273.1295 15.08841275 74434,6917.876,95.437,540.632,538.851,0.0
53715.0,STARLINK-4686,PAYLOAD,2024-01-05 13:51:45,15.08837964,0.0001334,53.2154,218.7477,85.7739,274.3405,0.00010965,1.458e-05,0.0,0 STARLINK-4686,1 53715U 22107R   24005.57761450  .00001458  00000-0  10965-3 0  9991,2 53715  53.2154 218.7477 0001334  85.7739 274.3405 15.08837964 74534,6917.887,95.438,540.674,538.829,0.0
53715.0,STARLINK-4686,PAYLOAD,2024-01-05 20:13:18,15.08840187,0.0001366,53.2153,217.5574,82.1141,278.0006,9.6941e-05,1.255e-05,0.0,0 STARLINK-4686,1 53715U 22107R   24005.84257426  .00001255  00000-0  96941-4 0  9998,2 53715  53.2153 217.5574 0001366  82.1141 278.0006 15.08840187 74114,6917.88,95.438,540.69,538.8,0.0
53715.0,STARLINK-4686,PAYLOAD,2024-01-05 21:48:41,15.08841377,0.0001429,53.2158,217.2604,80.6995,279.4159,0.00010832,1.436e-05,0.0,0 STARLINK-4686,1 53715U 22107R   24005.90881355  .00001436  00000-0  10832-3 0  9994,2 53715  53.2158 217.2604 0001429  80.6995 279.4159 15.08841377 74587,6917.876,95.437,540.73,538.753,0.0
53715.0,STARLINK-4686,PAYLOAD,2024-01-06 20:04:05,15.08841247,0.0001584,53.2159,213.0977,76.1409,283.976,3.9725e-05,3.44e-06,0.0,0 STARLINK-4686,1 53715U 22107R   24006.83617544  .00000344  00000-0  39725-4 0  9994,2 53715  53.2159 213.0977 0001584  76.1409 283.9760 15.08841247 74727,6917.877,95.437,540.837,538.646,0.0
53715.0,STARLINK-4686,PAYLOAD,2024-01-07 13:33:20,15.08839382,0.0001579,53.2158,209.8265,79.6672,280.4498,4.6323e-05,4.49e-06,0.0,0 STARLINK-4686,1 53715U 22107R   24007.56481696  .00000449  00000-0  46323-4 0  9990,2 53715  53.2158 209.8265 0001579  79.6672 280.4498 15.08839382 74832,6917.882,95.438,540.84,538.655,0.0
